{"type": "FeatureCollection", "features": [{"type": "Feature", "properties": {"District": "Buikwe", "Region": "Central"}, "geometry": {"type": "Point", "coordinates": [33.0, 0.33]}}, {"type": "Feature", "properties": {"District": "Bukomansimbi", "Region": "Central"}, "geometry": {"type": "Point", "coordinates": [31.5, -0.3]}}, {"type": "Feature", "properties": {"District": "Butambala", "Region": "Central"}, "geometry": {"type": "Point", "coordinates": [32.1, 0.2]}}, {"type": "Feature", "properties": {"District": "Buvuma", "Region": "Central"}, "geometry": {"type": "Point", "coordinates": [33.3, -0.2]}}, {"type": "Feature", "properties": {"District": "Gomba", "Region": "Central"}, "geometry": {"type": "Point", "coordinates": [31.85, 0.15]}}, {"type": "Feature", "properties": {"District": "Kalangala", "Region": "Central"}, "geometry": {"type": "Point", "coordinates": [32.25, -0.35]}}, {"type": "Feature", "properties": {"District": "Kalungu", "Region": "Central"}, "geometry": {"type": "Point", "coordinates": [31.75, -0.15]}}, {"type": "Feature", "properties": {"District": "Kampala", "Region": "Central"}, "geometry": {"type": "Point", "coordinates": [32.617, 0.317]}}, {"type": "Feature", "properties": {"District": "Kasanda", "Region": "Central"}, "geometry": {"type": "Point", "coordinates": [31.65, 0.5]}}, {"type": "Feature", "properties": {"District": "Kayunga", "Region": "Central"}, "geometry": {"type": "Point", "coordinates": [32.9, 0.7]}}, {"type": "Feature", "properties": {"District": "Kiboga", "Region": "Central"}, "geometry": {"type": "Point", "coordinates": [31.77, 1.0]}}, {"type": "Feature", "properties": {"District": "Kyankwanzi", "Region": "Central"}, "geometry": {"type": "Point", "coordinates": [31.6, 1.1]}}, {"type": "Feature", "properties": {"District": "Kyotera", "Region": "Central"}, "geometry": {"type": "Point", "coordinates": [31.5, -0.6]}}, {"type": "Feature", "properties": {"District": "Luweero", "Region": "Central"}, "geometry": {"type": "Point", "coordinates": [32.47, 0.85]}}, {"type": "Feature", "properties": {"District": "Lwengo", "Region": "Central"}, "geometry": {"type": "Point", "coordinates": [31.35, -0.45]}}, {"type": "Feature", "properties": {"District": "Lyantonde", "Region": "Central"}, "geometry": {"type": "Point", "coordinates": [31.15, -0.4]}}, {"type": "Feature", "properties": {"District": "Masaka", "Region": "Central"}, "geometry": {"type": "Point", "coordinates": [31.73, -0.33]}}, {"type": "Feature", "properties": {"District": "Mityana", "Region": "Central"}, "geometry": {"type": "Point", "coordinates": [32.05, 0.4]}}, {"type": "Feature", "properties": {"District": "Mpigi", "Region": "Central"}, "geometry": {"type": "Point", "coordinates": [32.3, 0.23]}}, {"type": "Feature", "properties": {"District": "Mubende", "Region": "Central"}, "geometry": {"type": "Point", "coordinates": [31.37, 0.58]}}, {"type": "Feature", "properties": {"District": "Mukono", "Region": "Central"}, "geometry": {"type": "Point", "coordinates": [32.76, 0.35]}}, {"type": "Feature", "properties": {"District": "Nakaseke", "Region": "Central"}, "geometry": {"type": "Point", "coordinates": [32.1, 1.2]}}, {"type": "Feature", "properties": {"District": "Nakasongola", "Region": "Central"}, "geometry": {"type": "Point", "coordinates": [32.45, 1.35]}}, {"type": "Feature", "properties": {"District": "Rakai", "Region": "Central"}, "geometry": {"type": "Point", "coordinates": [31.4, -0.7]}}, {"type": "Feature", "properties": {"District": "Sembabule", "Region": "Central"}, "geometry": {"type": "Point", "coordinates": [31.35, -0.05]}}, {"type": "Feature", "properties": {"District": "Wakiso", "Region": "Central"}, "geometry": {"type": "Point", "coordinates": [32.48, 0.4]}}, {"type": "Feature", "properties": {"District": "Amuria", "Region": "Eastern"}, "geometry": {"type": "Point", "coordinates": [33.65, 2.02]}}, {"type": "Feature", "properties": {"District": "Budaka", "Region": "Eastern"}, "geometry": {"type": "Point", "coordinates": [33.92, 0.9]}}, {"type": "Feature", "properties": {"District": "Bududa", "Region": "Eastern"}, "geometry": {"type": "Point", "coordinates": [34.33, 0.97]}}, {"type": "Feature", "properties": {"District": "Bugiri", "Region": "Eastern"}, "geometry": {"type": "Point", "coordinates": [33.75, 0.58]}}, {"type": "Feature", "properties": {"District": "Bugweri", "Region": "Eastern"}, "geometry": {"type": "Point", "coordinates": [33.6, 0.55]}}, {"type": "Feature", "properties": {"District": "Bukedea", "Region": "Eastern"}, "geometry": {"type": "Point", "coordinates": [34.05, 1.35]}}, {"type": "Feature", "properties": {"District": "Bukwo", "Region": "Eastern"}, "geometry": {"type": "Point", "coordinates": [34.75, 1.35]}}, {"type": "Feature", "properties": {"District": "Bulambuli", "Region": "Eastern"}, "geometry": {"type": "Point", "coordinates": [34.4, 1.1]}}, {"type": "Feature", "properties": {"District": "Busia", "Region": "Eastern"}, "geometry": {"type": "Point", "coordinates": [34.1, 0.45]}}, {"type": "Feature", "properties": {"District": "Butaleja", "Region": "Eastern"}, "geometry": {"type": "Point", "coordinates": [33.93, 0.85]}}, {"type": "Feature", "properties": {"District": "Butebo", "Region": "Eastern"}, "geometry": {"type": "Point", "coordinates": [33.98, 1.15]}}, {"type": "Feature", "properties": {"District": "Buyende", "Region": "Eastern"}, "geometry": {"type": "Point", "coordinates": [33.13, 1.15]}}, {"type": "Feature", "properties": {"District": "Iganga", "Region": "Eastern"}, "geometry": {"type": "Point", "coordinates": [33.5, 0.6]}}, {"type": "Feature", "properties": {"District": "Jinja", "Region": "Eastern"}, "geometry": {"type": "Point", "coordinates": [33.18, 0.47]}}, {"type": "Feature", "properties": {"District": "Kaberamaido", "Region": "Eastern"}, "geometry": {"type": "Point", "coordinates": [33.15, 1.75]}}, {"type": "Feature", "properties": {"District": "Kalaki", "Region": "Eastern"}, "geometry": {"type": "Point", "coordinates": [33.3, 1.9]}}, {"type": "Feature", "properties": {"District": "Kaliro", "Region": "Eastern"}, "geometry": {"type": "Point", "coordinates": [33.5, 1.05]}}, {"type": "Feature", "properties": {"District": "Kamuli", "Region": "Eastern"}, "geometry": {"type": "Point", "coordinates": [33.12, 0.95]}}, {"type": "Feature", "properties": {"District": "Kapchorwa", "Region": "Eastern"}, "geometry": {"type": "Point", "coordinates": [34.45, 1.4]}}, {"type": "Feature", "properties": {"District": "Kapelebyong", "Region": "Eastern"}, "geometry": {"type": "Point", "coordinates": [33.85, 1.95]}}, {"type": "Feature", "properties": {"District": "Katakwi", "Region": "Eastern"}, "geometry": {"type": "Point", "coordinates": [34.0, 1.9]}}, {"type": "Feature", "properties": {"District": "Kibuku", "Region": "Eastern"}, "geometry": {"type": "Point", "coordinates": [33.78, 1.05]}}, {"type": "Feature", "properties": {"District": "Kumi", "Region": "Eastern"}, "geometry": {"type": "Point", "coordinates": [33.93, 1.47]}}, {"type": "Feature", "properties": {"District": "Kween", "Region": "Eastern"}, "geometry": {"type": "Point", "coordinates": [34.55, 1.55]}}, {"type": "Feature", "properties": {"District": "Luuka", "Region": "Eastern"}, "geometry": {"type": "Point", "coordinates": [33.3, 0.75]}}, {"type": "Feature", "properties": {"District": "Manafwa", "Region": "Eastern"}, "geometry": {"type": "Point", "coordinates": [34.35, 0.93]}}, {"type": "Feature", "properties": {"District": "Mayuge", "Region": "Eastern"}, "geometry": {"type": "Point", "coordinates": [33.47, 0.45]}}, {"type": "Feature", "properties": {"District": "Mbale", "Region": "Eastern"}, "geometry": {"type": "Point", "coordinates": [34.18, 1.08]}}, {"type": "Feature", "properties": {"District": "Namayingo", "Region": "Eastern"}, "geometry": {"type": "Point", "coordinates": [33.85, 0.28]}}, {"type": "Feature", "properties": {"District": "Namisindwa", "Region": "Eastern"}, "geometry": {"type": "Point", "coordinates": [34.3, 0.87]}}, {"type": "Feature", "properties": {"District": "Namutumba", "Region": "Eastern"}, "geometry": {"type": "Point", "coordinates": [33.65, 0.83]}}, {"type": "Feature", "properties": {"District": "Ngora", "Region": "Eastern"}, "geometry": {"type": "Point", "coordinates": [33.78, 1.47]}}, {"type": "Feature", "properties": {"District": "Pallisa", "Region": "Eastern"}, "geometry": {"type": "Point", "coordinates": [33.72, 1.15]}}, {"type": "Feature", "properties": {"District": "Serere", "Region": "Eastern"}, "geometry": {"type": "Point", "coordinates": [33.55, 1.5]}}, {"type": "Feature", "properties": {"District": "Sironko", "Region": "Eastern"}, "geometry": {"type": "Point", "coordinates": [34.25, 1.23]}}, {"type": "Feature", "properties": {"District": "Soroti", "Region": "Eastern"}, "geometry": {"type": "Point", "coordinates": [33.62, 1.72]}}, {"type": "Feature", "properties": {"District": "Tororo", "Region": "Eastern"}, "geometry": {"type": "Point", "coordinates": [34.17, 0.68]}}, {"type": "Feature", "properties": {"District": "Abim", "Region": "Northern"}, "geometry": {"type": "Point", "coordinates": [33.65, 2.7]}}, {"type": "Feature", "properties": {"District": "Adjumani", "Region": "Northern"}, "geometry": {"type": "Point", "coordinates": [31.79, 3.38]}}, {"type": "Feature", "properties": {"District": "Agago", "Region": "Northern"}, "geometry": {"type": "Point", "coordinates": [33.45, 2.92]}}, {"type": "Feature", "properties": {"District": "Alebtong", "Region": "Northern"}, "geometry": {"type": "Point", "coordinates": [33.32, 2.25]}}, {"type": "Feature", "properties": {"District": "Amolatar", "Region": "Northern"}, "geometry": {"type": "Point", "coordinates": [32.83, 1.63]}}, {"type": "Feature", "properties": {"District": "Amudat", "Region": "Northern"}, "geometry": {"type": "Point", "coordinates": [34.9, 1.78]}}, {"type": "Feature", "properties": {"District": "Amuru", "Region": "Northern"}, "geometry": {"type": "Point", "coordinates": [31.95, 2.83]}}, {"type": "Feature", "properties": {"District": "Apac", "Region": "Northern"}, "geometry": {"type": "Point", "coordinates": [32.53, 1.98]}}, {"type": "Feature", "properties": {"District": "Arua", "Region": "Northern"}, "geometry": {"type": "Point", "coordinates": [30.91, 3.03]}}, {"type": "Feature", "properties": {"District": "Dokolo", "Region": "Northern"}, "geometry": {"type": "Point", "coordinates": [33.15, 1.92]}}, {"type": "Feature", "properties": {"District": "Gulu", "Region": "Northern"}, "geometry": {"type": "Point", "coordinates": [32.28, 2.78]}}, {"type": "Feature", "properties": {"District": "Kaabong", "Region": "Northern"}, "geometry": {"type": "Point", "coordinates": [34.15, 3.52]}}, {"type": "Feature", "properties": {"District": "Karenga", "Region": "Northern"}, "geometry": {"type": "Point", "coordinates": [34.35, 3.45]}}, {"type": "Feature", "properties": {"District": "Kitgum", "Region": "Northern"}, "geometry": {"type": "Point", "coordinates": [32.88, 3.3]}}, {"type": "Feature", "properties": {"District": "Koboko", "Region": "Northern"}, "geometry": {"type": "Point", "coordinates": [30.97, 3.4]}}, {"type": "Feature", "properties": {"District": "Kole", "Region": "Northern"}, "geometry": {"type": "Point", "coordinates": [32.75, 2.4]}}, {"type": "Feature", "properties": {"District": "Kotido", "Region": "Northern"}, "geometry": {"type": "Point", "coordinates": [34.13, 2.98]}}, {"type": "Feature", "properties": {"District": "Kwania", "Region": "Northern"}, "geometry": {"type": "Point", "coordinates": [32.55, 1.83]}}, {"type": "Feature", "properties": {"District": "Lamwo", "Region": "Northern"}, "geometry": {"type": "Point", "coordinates": [32.75, 3.55]}}, {"type": "Feature", "properties": {"District": "Lira", "Region": "Northern"}, "geometry": {"type": "Point", "coordinates": [32.9, 2.25]}}, {"type": "Feature", "properties": {"District": "Madi-Okollo", "Region": "Northern"}, "geometry": {"type": "Point", "coordinates": [31.1, 3.05]}}, {"type": "Feature", "properties": {"District": "Maracha", "Region": "Northern"}, "geometry": {"type": "Point", "coordinates": [30.72, 3.28]}}, {"type": "Feature", "properties": {"District": "Moroto", "Region": "Northern"}, "geometry": {"type": "Point", "coordinates": [34.65, 2.53]}}, {"type": "Feature", "properties": {"District": "Moyo", "Region": "Northern"}, "geometry": {"type": "Point", "coordinates": [31.72, 3.65]}}, {"type": "Feature", "properties": {"District": "Nabilatuk", "Region": "Northern"}, "geometry": {"type": "Point", "coordinates": [34.65, 2.2]}}, {"type": "Feature", "properties": {"District": "Nakapiripirit", "Region": "Northern"}, "geometry": {"type": "Point", "coordinates": [34.75, 1.9]}}, {"type": "Feature", "properties": {"District": "Napak", "Region": "Northern"}, "geometry": {"type": "Point", "coordinates": [34.25, 2.5]}}, {"type": "Feature", "properties": {"District": "Nebbi", "Region": "Northern"}, "geometry": {"type": "Point", "coordinates": [31.1, 2.48]}}, {"type": "Feature", "properties": {"District": "Nwoya", "Region": "Northern"}, "geometry": {"type": "Point", "coordinates": [32.0, 2.6]}}, {"type": "Feature", "properties": {"District": "Obongi", "Region": "Northern"}, "geometry": {"type": "Point", "coordinates": [31.6, 3.4]}}, {"type": "Feature", "properties": {"District": "Omoro", "Region": "Northern"}, "geometry": {"type": "Point", "coordinates": [32.35, 2.65]}}, {"type": "Feature", "properties": {"District": "Otuke", "Region": "Northern"}, "geometry": {"type": "Point", "coordinates": [33.3, 2.42]}}, {"type": "Feature", "properties": {"District": "Oyam", "Region": "Northern"}, "geometry": {"type": "Point", "coordinates": [32.3, 2.3]}}, {"type": "Feature", "properties": {"District": "Pader", "Region": "Northern"}, "geometry": {"type": "Point", "coordinates": [33.1, 2.9]}}, {"type": "Feature", "properties": {"District": "Pakwach", "Region": "Northern"}, "geometry": {"type": "Point", "coordinates": [31.5, 2.47]}}, {"type": "Feature", "properties": {"District": "Terego", "Region": "Northern"}, "geometry": {"type": "Point", "coordinates": [30.95, 3.1]}}, {"type": "Feature", "properties": {"District": "Yumbe", "Region": "Northern"}, "geometry": {"type": "Point", "coordinates": [31.25, 3.47]}}, {"type": "Feature", "properties": {"District": "Zombo", "Region": "Northern"}, "geometry": {"type": "Point", "coordinates": [30.9, 2.3]}}, {"type": "Feature", "properties": {"District": "Buhweju", "Region": "Western"}, "geometry": {"type": "Point", "coordinates": [30.3, -0.3]}}, {"type": "Feature", "properties": {"District": "Buliisa", "Region": "Western"}, "geometry": {"type": "Point", "coordinates": [31.35, 1.85]}}, {"type": "Feature", "properties": {"District": "Bundibugyo", "Region": "Western"}, "geometry": {"type": "Point", "coordinates": [30.05, 0.7]}}, {"type": "Feature", "properties": {"District": "Bunyangabu", "Region": "Western"}, "geometry": {"type": "Point", "coordinates": [30.3, 0.55]}}, {"type": "Feature", "properties": {"District": "Bushenyi", "Region": "Western"}, "geometry": {"type": "Point", "coordinates": [30.2, -0.53]}}, {"type": "Feature", "properties": {"District": "Hoima", "Region": "Western"}, "geometry": {"type": "Point", "coordinates": [31.35, 1.43]}}, {"type": "Feature", "properties": {"District": "Ibanda", "Region": "Western"}, "geometry": {"type": "Point", "coordinates": [30.55, -0.15]}}, {"type": "Feature", "properties": {"District": "Isingiro", "Region": "Western"}, "geometry": {"type": "Point", "coordinates": [30.8, -0.85]}}, {"type": "Feature", "properties": {"District": "Kabale", "Region": "Western"}, "geometry": {"type": "Point", "coordinates": [29.98, -1.25]}}, {"type": "Feature", "properties": {"District": "Kabarole", "Region": "Western"}, "geometry": {"type": "Point", "coordinates": [30.28, 0.65]}}, {"type": "Feature", "properties": {"District": "Kagadi", "Region": "Western"}, "geometry": {"type": "Point", "coordinates": [30.82, 0.93]}}, {"type": "Feature", "properties": {"District": "Kakumiro", "Region": "Western"}, "geometry": {"type": "Point", "coordinates": [31.2, 0.9]}}, {"type": "Feature", "properties": {"District": "Kamwenge", "Region": "Western"}, "geometry": {"type": "Point", "coordinates": [30.55, 0.2]}}, {"type": "Feature", "properties": {"District": "Kanungu", "Region": "Western"}, "geometry": {"type": "Point", "coordinates": [29.78, -0.9]}}, {"type": "Feature", "properties": {"District": "Kasese", "Region": "Western"}, "geometry": {"type": "Point", "coordinates": [30.08, 0.18]}}, {"type": "Feature", "properties": {"District": "Kazo", "Region": "Western"}, "geometry": {"type": "Point", "coordinates": [30.9, -0.05]}}, {"type": "Feature", "properties": {"District": "Kibaale", "Region": "Western"}, "geometry": {"type": "Point", "coordinates": [31.05, 0.8]}}, {"type": "Feature", "properties": {"District": "Kikuube", "Region": "Western"}, "geometry": {"type": "Point", "coordinates": [31.1, 1.2]}}, {"type": "Feature", "properties": {"District": "Kiruhura", "Region": "Western"}, "geometry": {"type": "Point", "coordinates": [30.8, -0.2]}}, {"type": "Feature", "properties": {"District": "Kiryandongo", "Region": "Western"}, "geometry": {"type": "Point", "coordinates": [32.1, 1.9]}}, {"type": "Feature", "properties": {"District": "Kisoro", "Region": "Western"}, "geometry": {"type": "Point", "coordinates": [29.68, -1.28]}}, {"type": "Feature", "properties": {"District": "Kitagwenda", "Region": "Western"}, "geometry": {"type": "Point", "coordinates": [30.55, 0.1]}}, {"type": "Feature", "properties": {"District": "Kyegegwa", "Region": "Western"}, "geometry": {"type": "Point", "coordinates": [31.05, 0.48]}}, {"type": "Feature", "properties": {"District": "Kyenjojo", "Region": "Western"}, "geometry": {"type": "Point", "coordinates": [30.62, 0.62]}}, {"type": "Feature", "properties": {"District": "Masindi", "Region": "Western"}, "geometry": {"type": "Point", "coordinates": [31.72, 1.68]}}, {"type": "Feature", "properties": {"District": "Mbarara", "Region": "Western"}, "geometry": {"type": "Point", "coordinates": [30.65, -0.6]}}, {"type": "Feature", "properties": {"District": "Mitooma", "Region": "Western"}, "geometry": {"type": "Point", "coordinates": [30.05, -0.68]}}, {"type": "Feature", "properties": {"District": "Ntoroko", "Region": "Western"}, "geometry": {"type": "Point", "coordinates": [30.5, 1.05]}}, {"type": "Feature", "properties": {"District": "Ntungamo", "Region": "Western"}, "geometry": {"type": "Point", "coordinates": [30.27, -0.88]}}, {"type": "Feature", "properties": {"District": "Rubanda", "Region": "Western"}, "geometry": {"type": "Point", "coordinates": [29.8, -1.15]}}, {"type": "Feature", "properties": {"District": "Rubirizi", "Region": "Western"}, "geometry": {"type": "Point", "coordinates": [30.1, -0.28]}}, {"type": "Feature", "properties": {"District": "Rukiga", "Region": "Western"}, "geometry": {"type": "Point", "coordinates": [30.15, -1.25]}}, {"type": "Feature", "properties": {"District": "Rukungiri", "Region": "Western"}, "geometry": {"type": "Point", "coordinates": [29.93, -0.79]}}, {"type": "Feature", "properties": {"District": "Rwampara", "Region": "Western"}, "geometry": {"type": "Point", "coordinates": [30.55, -0.65]}}, {"type": "Feature", "properties": {"District": "Sheema", "Region": "Western"}, "geometry": {"type": "Point", "coordinates": [30.35, -0.55]}}, {"type": "Feature", "properties": {"District": "Arua City", "Region": "Northern"}, "geometry": {"type": "Point", "coordinates": [30.91, 3.03]}}, {"type": "Feature", "properties": {"District": "Entebbe City", "Region": "Central"}, "geometry": {"type": "Point", "coordinates": [32.45, 0.06]}}, {"type": "Feature", "properties": {"District": "Fort Portal City", "Region": "Western"}, "geometry": {"type": "Point", "coordinates": [30.28, 0.65]}}, {"type": "Feature", "properties": {"District": "Gulu City", "Region": "Northern"}, "geometry": {"type": "Point", "coordinates": [32.28, 2.78]}}, {"type": "Feature", "properties": {"District": "Hoima City", "Region": "Western"}, "geometry": {"type": "Point", "coordinates": [31.35, 1.43]}}, {"type": "Feature", "properties": {"District": "Jinja City", "Region": "Eastern"}, "geometry": {"type": "Point", "coordinates": [33.18, 0.47]}}, {"type": "Feature", "properties": {"District": "Lira City", "Region": "Northern"}, "geometry": {"type": "Point", "coordinates": [32.9, 2.25]}}, {"type": "Feature", "properties": {"District": "Masaka City", "Region": "Central"}, "geometry": {"type": "Point", "coordinates": [31.73, -0.33]}}, {"type": "Feature", "properties": {"District": "Mbale City", "Region": "Eastern"}, "geometry": {"type": "Point", "coordinates": [34.18, 1.08]}}, {"type": "Feature", "properties": {"District": "Mbarara City", "Region": "Western"}, "geometry": {"type": "Point", "coordinates": [30.65, -0.6]}}]}