{"type": "FeatureCollection", "features": [{"type": "Feature", "properties": {"District": "Buikwe", "Region": "Central"}, "geometry": {"type": "Polygon", "coordinates": [[[33.28925036390102, 0.1438209606986901], [32.86735704697987, -0.09498657718120534], [32.84717678100264, -0.05387862796833301], [32.8933064516129, 0.49967741935483834], [32.99177419354839, 0.5262903225806453], [33.28925036390102, 0.1438209606986901]]]}}, {"type": "Feature", "properties": {"District": "Bukomansimbi", "Region": "Central"}, "geometry": {"type": "Polygon", "coordinates": [[[31.5, -0.44999999999999996], [31.3, -0.24999999999999997], [31.55, -0.10000000000000081], [31.626428571428573, -0.22738095238095268], [31.597391304347827, -0.44999999999999996], [31.5, -0.44999999999999996]]]}}, {"type": "Feature", "properties": {"District": "Butambala", "Region": "Central"}, "geometry": {"type": "Polygon", "coordinates": [[[31.955952380952382, 0.2702380952380934], [32.183192771084336, 0.3270481927710865], [32.229727272727274, 0.016818181818177513], [32.19520408163265, -0.06948979591836688], [32.05714285714286, -0.10714285714285701], [32.025, -0.07500000000000141], [31.955952380952382, 0.2702380952380934]]]}}, {"type": "Feature", "properties": {"District": "Buvuma", "Region": "Central"}, "geometry": {"type": "Polygon", "coordinates": [[[32.786872659176026, -0.3581086142322116], [32.86735704697987, -0.09498657718120534], [33.28925036390102, 0.1438209606986901], [33.30336894215737, 0.14634966128191756], [33.53507249003262, 0.08575027183762127], [34.91899999999999, -1.5], [32.949999999999996, -1.5], [32.786872659176026, -0.3581086142322116]]]}}, {"type": "Feature", "properties": {"District": "Gomba", "Region": "Central"}, "geometry": {"type": "Polygon", "coordinates": [[[31.592307692307692, 0.06923076923077015], [31.53837209302326, 0.20406976744185978], [31.83020833333333, 0.3708333333333327], [31.955952380952382, 0.2702380952380934], [32.025, -0.07500000000000141], [31.592307692307692, 0.06923076923077015]]]}}, {"type": "Feature", "properties": {"District": "Kalangala", "Region": "Central"}, "geometry": {"type": "Polygon", "coordinates": [[[31.99276595744681, -0.2680851063829781], [32.05714285714286, -0.10714285714285701], [32.19520408163265, -0.06948979591836688], [32.786872659176026, -0.3581086142322116], [32.949999999999996, -1.5], [32.226470588235294, -1.5], [32.175000000000004, -1.3750000000000169], [31.97344827586207, -0.7703448275862075], [31.99276595744681, -0.2680851063829781]]]}}, {"type": "Feature", "properties": {"District": "Kalungu", "Region": "Central"}, "geometry": {"type": "Polygon", "coordinates": [[[31.55, -0.10000000000000081], [31.592307692307692, 0.06923076923077015], [32.025, -0.07500000000000141], [32.05714285714286, -0.10714285714285701], [31.99276595744681, -0.2680851063829781], [31.626428571428573, -0.22738095238095268], [31.55, -0.10000000000000081]]]}}, {"type": "Feature", "properties": {"District": "Kampala", "Region": "Central"}, "geometry": {"type": "Polygon", "coordinates": [[[32.645704697986574, 0.5189463087248336], [32.75520774647887, 0.04443309859155703], [32.47061293695847, 0.22936435613982734], [32.47050431598221, 0.22976013601883327], [32.645704697986574, 0.5189463087248336]]]}}, {"type": "Feature", "properties": {"District": "Kasanda", "Region": "Central"}, "geometry": {"type": "Polygon", "coordinates": [[[31.53837209302326, 0.20406976744185978], [31.43078651685393, 0.2627528089887642], [31.57898395721925, 0.7814438502673797], [31.912830188679244, 0.701320754716981], [31.83020833333333, 0.3708333333333327], [31.53837209302326, 0.20406976744185978]]]}}, {"type": "Feature", "properties": {"District": "Kayunga", "Region": "Central"}, "geometry": {"type": "Polygon", "coordinates": [[[32.77467971530249, 1.0320818505338063], [33.09707865168539, 0.7483707865168545], [33.107264150943394, 0.6668867924528291], [32.99177419354839, 0.5262903225806453], [32.8933064516129, 0.49967741935483834], [32.659, 0.5934000000000006], [32.633906249999995, 0.6285312499999993], [32.77467971530249, 1.0320818505338063]]]}}, {"type": "Feature", "properties": {"District": "Kiboga", "Region": "Central"}, "geometry": {"type": "Polygon", "coordinates": [[[31.57898395721925, 0.7814438502673797], [31.54568222621185, 0.8131597845601444], [31.82305970149254, 1.2847014925373126], [32.09937994722955, 0.8287730870712405], [32.08976190476191, 0.7838888888888886], [31.912830188679244, 0.701320754716981], [31.57898395721925, 0.7814438502673797]]]}}, {"type": "Feature", "properties": {"District": "Kyankwanzi", "Region": "Central"}, "geometry": {"type": "Polygon", "coordinates": [[[31.54568222621185, 0.8131597845601444], [31.47858024691358, 0.8428395061728402], [31.342857142857145, 1.1142857142857132], [31.354785714285715, 1.1739285714285714], [31.644290357529794, 1.3932502708559045], [31.80812949640288, 1.3593525179856119], [31.82305970149254, 1.2847014925373126], [31.54568222621185, 0.8131597845601444]]]}}, {"type": "Feature", "properties": {"District": "Kyotera", "Region": "Central"}, "geometry": {"type": "Polygon", "coordinates": [[[32.175000000000004, -1.3750000000000169], [31.375, -0.575], [31.5, -0.44999999999999996], [31.597391304347827, -0.44999999999999996], [31.97344827586207, -0.7703448275862075], [32.175000000000004, -1.3750000000000169]]]}}, {"type": "Feature", "properties": {"District": "Luweero", "Region": "Central"}, "geometry": {"type": "Polygon", "coordinates": [[[32.77467971530249, 1.0320818505338063], [32.633906249999995, 0.6285312499999993], [32.265, 0.6203333333333342], [32.08976190476191, 0.7838888888888886], [32.09937994722955, 0.8287730870712405], [32.35185393258427, 1.0956741573033717], [32.74928571428572, 1.1115714285714262], [32.76918604651163, 1.0677906976744278], [32.77467971530249, 1.0320818505338063]]]}}, {"type": "Feature", "properties": {"District": "Lwengo", "Region": "Central"}, "geometry": {"type": "Polygon", "coordinates": [[[31.375, -0.575], [31.203947368421055, -0.6092105263157872], [31.29375, -0.25], [31.3, -0.24999999999999997], [31.5, -0.44999999999999996], [31.375, -0.575]]]}}, {"type": "Feature", "properties": {"District": "Lyantonde", "Region": "Central"}, "geometry": {"type": "Polygon", "coordinates": [[[31.08362068965517, -0.7094827586206889], [30.938709677419354, -0.5967741935483861], [30.883823529411764, -0.45955882352941224], [31.012931034482758, -0.23362068965517088], [31.125, -0.15357142857142755], [31.29375, -0.25], [31.203947368421055, -0.6092105263157872], [31.08362068965517, -0.7094827586206889]]]}}, {"type": "Feature", "properties": {"District": "Masaka", "Region": "Central"}, "geometry": {"type": "Polygon", "coordinates": [[[31.597391304347827, -0.44999999999999996], [31.626428571428573, -0.22738095238095268], [31.99276595744681, -0.2680851063829781], [31.97344827586207, -0.7703448275862075], [31.597391304347827, -0.44999999999999996]]]}}, {"type": "Feature", "properties": {"District": "Mityana", "Region": "Central"}, "geometry": {"type": "Polygon", "coordinates": [[[32.183192771084336, 0.3270481927710865], [31.955952380952382, 0.2702380952380934], [31.83020833333333, 0.3708333333333327], [31.912830188679244, 0.701320754716981], [32.08976190476191, 0.7838888888888886], [32.265, 0.6203333333333342], [32.265, 0.4473529411764704], [32.183192771084336, 0.3270481927710865]]]}}, {"type": "Feature", "properties": {"District": "Mpigi", "Region": "Central"}, "geometry": {"type": "Polygon", "coordinates": [[[32.47061293695847, 0.22936435613982734], [32.229727272727274, 0.016818181818177513], [32.183192771084336, 0.3270481927710865], [32.265, 0.4473529411764704], [32.47050431598221, 0.22976013601883327], [32.47061293695847, 0.22936435613982734]]]}}, {"type": "Feature", "properties": {"District": "Mubende", "Region": "Central"}, "geometry": {"type": "Polygon", "coordinates": [[[31.175625, 0.64], [31.221, 0.7060000000000001], [31.47858024691358, 0.8428395061728402], [31.54568222621185, 0.8131597845601444], [31.57898395721925, 0.7814438502673797], [31.43078651685393, 0.2627528089887642], [31.292139278557116, 0.2671543086172345], [31.175625, 0.64]]]}}, {"type": "Feature", "properties": {"District": "Mukono", "Region": "Central"}, "geometry": {"type": "Polygon", "coordinates": [[[32.659, 0.5934000000000006], [32.8933064516129, 0.49967741935483834], [32.84717678100264, -0.05387862796833301], [32.75520774647887, 0.04443309859155703], [32.645704697986574, 0.5189463087248336], [32.659, 0.5934000000000006]]]}}, {"type": "Feature", "properties": {"District": "Nakaseke", "Region": "Central"}, "geometry": {"type": "Polygon", "coordinates": [[[32.15714285714286, 1.5499999999999998], [32.35185393258427, 1.0956741573033717], [32.09937994722955, 0.8287730870712405], [31.82305970149254, 1.2847014925373126], [31.80812949640288, 1.3593525179856119], [32.048947368421054, 1.55], [32.15714285714286, 1.5499999999999998]]]}}, {"type": "Feature", "properties": {"District": "Nakasongola", "Region": "Central"}, "geometry": {"type": "Polygon", "coordinates": [[[32.35185393258427, 1.0956741573033717], [32.15714285714286, 1.5499999999999998], [32.289058295964125, 1.633946188340805], [32.578341968911914, 1.5736787564766852], [32.79765765765766, 1.2760360360360357], [32.74928571428572, 1.1115714285714262], [32.35185393258427, 1.0956741573033717]]]}}, {"type": "Feature", "properties": {"District": "Rakai", "Region": "Central"}, "geometry": {"type": "Polygon", "coordinates": [[[32.226470588235294, -1.5], [31.28125, -1.5], [31.08362068965517, -0.7094827586206889], [31.203947368421055, -0.6092105263157872], [31.375, -0.575], [32.175000000000004, -1.3750000000000169], [32.226470588235294, -1.5]]]}}, {"type": "Feature", "properties": {"District": "Sembabule", "Region": "Central"}, "geometry": {"type": "Polygon", "coordinates": [[[31.29375, -0.25], [31.125, -0.15357142857142755], [31.125, 0.17254716981132007], [31.292139278557116, 0.2671543086172345], [31.43078651685393, 0.2627528089887642], [31.53837209302326, 0.20406976744185978], [31.592307692307692, 0.06923076923077015], [31.55, -0.10000000000000081], [31.3, -0.24999999999999997], [31.29375, -0.25]]]}}, {"type": "Feature", "properties": {"District": "Wakiso", "Region": "Central"}, "geometry": {"type": "Polygon", "coordinates": [[[32.265, 0.4473529411764704], [32.265, 0.6203333333333342], [32.633906249999995, 0.6285312499999993], [32.659, 0.5934000000000006], [32.645704697986574, 0.5189463087248336], [32.47050431598221, 0.22976013601883327], [32.265, 0.4473529411764704]]]}}, {"type": "Feature", "properties": {"District": "Amuria", "Region": "Eastern"}, "geometry": {"type": "Polygon", "coordinates": [[[33.87, 2.3600000000000003], [33.87782608695652, 2.3502173913043487], [33.70722222222222, 1.8627777777777772], [33.50127218934911, 1.8833727810650893], [33.43808076602831, 2.0676810990840955], [33.64181818181818, 2.36], [33.87, 2.3600000000000003]]]}}, {"type": "Feature", "properties": {"District": "Budaka", "Region": "Eastern"}, "geometry": {"type": "Polygon", "coordinates": [[[33.78943661971831, 0.8478873239436671], [33.77470178926441, 0.9047216699801182], [33.91306818181818, 1.0338636363636353], [34.04086715867159, 1.0031918819188208], [34.10472972972973, 0.9109459459459397], [33.78943661971831, 0.8478873239436671]]]}}, {"type": "Feature", "properties": {"District": "Bududa", "Region": "Eastern"}, "geometry": {"type": "Polygon", "coordinates": [[[34.29139705882353, 1.0746323529411763], [34.43481481481481, 0.9974074074074109], [34.293125, 0.9265624999999984], [34.20270491803279, 0.9536885245901648], [34.29139705882353, 1.0746323529411763]]]}}, {"type": "Feature", "properties": {"District": "Bugiri", "Region": "Eastern"}, "geometry": {"type": "Polygon", "coordinates": [[[33.650925925925925, 0.6853703703703705], [33.796875, 0.7437500000000005], [33.95858490566038, 0.6359433962264144], [33.96301339285714, 0.6173437500000005], [33.90663043478261, 0.4655434782608702], [33.708125, 0.39937499999999965], [33.650925925925925, 0.6853703703703705]]]}}, {"type": "Feature", "properties": {"District": "Bugweri", "Region": "Eastern"}, "geometry": {"type": "Polygon", "coordinates": [[[33.65222129783694, 0.34761231281197813], [33.52136363636364, 0.5177272727272721], [33.60893442622951, 0.6928688524590163], [33.650925925925925, 0.6853703703703705], [33.708125, 0.39937499999999965], [33.65222129783694, 0.34761231281197813]]]}}, {"type": "Feature", "properties": {"District": "Bukedea", "Region": "Eastern"}, "geometry": {"type": "Polygon", "coordinates": [[[34.217222222222226, 1.63722222222222], [34.24155172413793, 1.4425862068965556], [34.10673553719008, 1.2178925619834704], [33.87796296296296, 1.2979629629629632], [34.217222222222226, 1.63722222222222]]]}}, {"type": "Feature", "properties": {"District": "Bukwo", "Region": "Eastern"}, "geometry": {"type": "Polygon", "coordinates": [[[35.05, 1.486511627906978], [35.05, 0.6638095238095267], [34.818085106382966, 0.8846808510638399], [34.575, 1.2249999999999979], [34.605000000000004, 1.4050000000000027], [34.78051724137931, 1.580517241379311], [35.05, 1.486511627906978]]]}}, {"type": "Feature", "properties": {"District": "Bulambuli", "Region": "Eastern"}, "geometry": {"type": "Polygon", "coordinates": [[[34.28715189873417, 1.1213291139240509], [34.40199029126214, 1.2538349514563112], [34.575, 1.2249999999999979], [34.818085106382966, 0.8846808510638399], [34.43481481481481, 0.9974074074074109], [34.29139705882353, 1.0746323529411763], [34.28715189873417, 1.1213291139240509]]]}}, {"type": "Feature", "properties": {"District": "Busia", "Region": "Eastern"}, "geometry": {"type": "Polygon", "coordinates": [[[33.90663043478261, 0.4655434782608702], [33.96301339285714, 0.6173437500000005], [34.867951807228955, 0.34192771084336115], [35.05, 0.2552380952381044], [35.05, -1.2158823529411684], [33.90663043478261, 0.4655434782608702]]]}}, {"type": "Feature", "properties": {"District": "Butaleja", "Region": "Eastern"}, "geometry": {"type": "Polygon", "coordinates": [[[34.11271535580524, 0.9022659176029978], [34.11516248153619, 0.8569940915805], [33.95858490566038, 0.6359433962264144], [33.796875, 0.7437500000000005], [33.78943661971831, 0.8478873239436671], [34.10472972972973, 0.9109459459459397], [34.11271535580524, 0.9022659176029978]]]}}, {"type": "Feature", "properties": {"District": "Butebo", "Region": "Eastern"}, "geometry": {"type": "Polygon", "coordinates": [[[34.10673553719008, 1.2178925619834704], [34.110988538681944, 1.203538681948425], [34.04086715867159, 1.0031918819188208], [33.91306818181818, 1.0338636363636353], [33.85, 1.160000000000001], [33.849999999999994, 1.2912499999999996], [33.855000000000004, 1.2943750000000012], [33.87796296296296, 1.2979629629629632], [34.10673553719008, 1.2178925619834704]]]}}, {"type": "Feature", "properties": {"District": "Buyende", "Region": "Eastern"}, "geometry": {"type": "Polygon", "coordinates": [[[33.36704081632653, 1.292551020408162], [33.29913333333333, 1.0412933333333287], [32.76918604651163, 1.0677906976744278], [32.74928571428572, 1.1115714285714262], [32.79765765765766, 1.2760360360360357], [33.079240506329114, 1.4520253164556958], [33.238571428571426, 1.4467142857142865], [33.36704081632653, 1.292551020408162]]]}}, {"type": "Feature", "properties": {"District": "Iganga", "Region": "Eastern"}, "geometry": {"type": "Polygon", "coordinates": [[[33.331598639455784, 0.5556802721088447], [33.32418918918919, 0.5739189189189191], [33.47762773722628, 0.7785036496350368], [33.60893442622951, 0.6928688524590163], [33.52136363636364, 0.5177272727272721], [33.331598639455784, 0.5556802721088447]]]}}, {"type": "Feature", "properties": {"District": "Jinja", "Region": "Eastern"}, "geometry": {"type": "Polygon", "coordinates": [[[33.107264150943394, 0.6668867924528291], [33.32418918918919, 0.5739189189189191], [33.331598639455784, 0.5556802721088447], [33.30336894215737, 0.14634966128191756], [33.28925036390102, 0.1438209606986901], [32.99177419354839, 0.5262903225806453], [33.107264150943394, 0.6668867924528291]]]}}, {"type": "Feature", "properties": {"District": "Kaberamaido", "Region": "Eastern"}, "geometry": {"type": "Polygon", "coordinates": [[[33.238571428571426, 1.4467142857142865], [33.079240506329114, 1.4520253164556958], [32.935625, 1.835], [33.214999999999996, 1.835], [33.378846153846155, 1.6711538461538469], [33.238571428571426, 1.4467142857142865]]]}}, {"type": "Feature", "properties": {"District": "Kalaki", "Region": "Eastern"}, "geometry": {"type": "Polygon", "coordinates": [[[33.50127218934911, 1.8833727810650893], [33.383554216867466, 1.6740963855421689], [33.378846153846155, 1.6711538461538469], [33.214999999999996, 1.835], [33.2474763705104, 2.078572778827978], [33.43808076602831, 2.0676810990840955], [33.50127218934911, 1.8833727810650893]]]}}, {"type": "Feature", "properties": {"District": "Kaliro", "Region": "Eastern"}, "geometry": {"type": "Polygon", "coordinates": [[[33.530744680851065, 1.2743617021276596], [33.64, 1.0339999999999978], [33.64, 0.9843181818181822], [33.4588202247191, 0.8607865168539325], [33.322765957446805, 0.9514893617021285], [33.29913333333333, 1.0412933333333287], [33.36704081632653, 1.292551020408162], [33.530744680851065, 1.2743617021276596]]]}}, {"type": "Feature", "properties": {"District": "Kamuli", "Region": "Eastern"}, "geometry": {"type": "Polygon", "coordinates": [[[33.29913333333333, 1.0412933333333287], [33.322765957446805, 0.9514893617021285], [33.09707865168539, 0.7483707865168545], [32.77467971530249, 1.0320818505338063], [32.76918604651163, 1.0677906976744278], [33.29913333333333, 1.0412933333333287]]]}}, {"type": "Feature", "properties": {"District": "Kapchorwa", "Region": "Eastern"}, "geometry": {"type": "Polygon", "coordinates": [[[34.21810722100656, 1.6437964989059077], [34.23031914893616, 1.6547872340425467], [34.605000000000004, 1.4050000000000027], [34.575, 1.2249999999999979], [34.40199029126214, 1.2538349514563112], [34.24155172413793, 1.4425862068965556], [34.217222222222226, 1.63722222222222], [34.21810722100656, 1.6437964989059077]]]}}, {"type": "Feature", "properties": {"District": "Kapelebyong", "Region": "Eastern"}, "geometry": {"type": "Polygon", "coordinates": [[[33.855, 1.714999999999998], [33.70722222222222, 1.8627777777777772], [33.87782608695652, 2.3502173913043487], [34.02987804878049, 2.2396341463414626], [33.855, 1.714999999999998]]]}}, {"type": "Feature", "properties": {"District": "Katakwi", "Region": "Eastern"}, "geometry": {"type": "Polygon", "coordinates": [[[34.23031914893616, 1.6547872340425467], [34.21810722100656, 1.6437964989059077], [33.86120689655172, 1.7018965517241382], [33.855, 1.714999999999998], [34.02987804878049, 2.2396341463414626], [34.28690476190476, 2.132539682539683], [34.375, 1.9416666666666655], [34.375, 1.8821428571428587], [34.23031914893616, 1.6547872340425467]]]}}, {"type": "Feature", "properties": {"District": "Kibuku", "Region": "Eastern"}, "geometry": {"type": "Polygon", "coordinates": [[[33.64, 0.9843181818181822], [33.64, 1.0339999999999978], [33.85, 1.160000000000001], [33.91306818181818, 1.0338636363636353], [33.77470178926441, 0.9047216699801182], [33.64, 0.9843181818181822]]]}}, {"type": "Feature", "properties": {"District": "Kumi", "Region": "Eastern"}, "geometry": {"type": "Polygon", "coordinates": [[[33.855000000000004, 1.2943750000000012], [33.855000000000004, 1.694200000000003], [33.86120689655172, 1.7018965517241382], [34.21810722100656, 1.6437964989059077], [34.217222222222226, 1.63722222222222], [33.87796296296296, 1.2979629629629632], [33.855000000000004, 1.2943750000000012]]]}}, {"type": "Feature", "properties": {"District": "Kween", "Region": "Eastern"}, "geometry": {"type": "Polygon", "coordinates": [[[34.78051724137931, 1.580517241379311], [34.605000000000004, 1.4050000000000027], [34.23031914893616, 1.6547872340425467], [34.375, 1.8821428571428587], [34.70696078431372, 1.6924509803921566], [34.78051724137931, 1.580517241379311]]]}}, {"type": "Feature", "properties": {"District": "Luuka", "Region": "Eastern"}, "geometry": {"type": "Polygon", "coordinates": [[[33.47762773722628, 0.7785036496350368], [33.32418918918919, 0.5739189189189191], [33.107264150943394, 0.6668867924528291], [33.09707865168539, 0.7483707865168545], [33.322765957446805, 0.9514893617021285], [33.4588202247191, 0.8607865168539325], [33.47762773722628, 0.7785036496350368]]]}}, {"type": "Feature", "properties": {"District": "Manafwa", "Region": "Eastern"}, "geometry": {"type": "Polygon", "coordinates": [[[34.293125, 0.9265624999999984], [34.43481481481481, 0.9974074074074109], [34.818085106382966, 0.8846808510638399], [35.05, 0.6638095238095267], [35.05, 0.29583333333328304], [34.293125, 0.9265624999999984]]]}}, {"type": "Feature", "properties": {"District": "Mayuge", "Region": "Eastern"}, "geometry": {"type": "Polygon", "coordinates": [[[33.53507249003262, 0.08575027183762127], [33.30336894215737, 0.14634966128191756], [33.331598639455784, 0.5556802721088447], [33.52136363636364, 0.5177272727272721], [33.65222129783694, 0.34761231281197813], [33.53507249003262, 0.08575027183762127]]]}}, {"type": "Feature", "properties": {"District": "Mbale", "Region": "Eastern"}, "geometry": {"type": "Polygon", "coordinates": [[[34.11271535580524, 0.9022659176029978], [34.10472972972973, 0.9109459459459397], [34.04086715867159, 1.0031918819188208], [34.110988538681944, 1.203538681948425], [34.28715189873417, 1.1213291139240509], [34.29139705882353, 1.0746323529411763], [34.20270491803279, 0.9536885245901648], [34.11271535580524, 0.9022659176029978]]]}}, {"type": "Feature", "properties": {"District": "Namayingo", "Region": "Eastern"}, "geometry": {"type": "Polygon", "coordinates": [[[33.90663043478261, 0.4655434782608702], [35.05, -1.2158823529411684], [35.05, -1.5], [34.91899999999999, -1.5], [33.53507249003262, 0.08575027183762127], [33.65222129783694, 0.34761231281197813], [33.708125, 0.39937499999999965], [33.90663043478261, 0.4655434782608702]]]}}, {"type": "Feature", "properties": {"District": "Namisindwa", "Region": "Eastern"}, "geometry": {"type": "Polygon", "coordinates": [[[34.867951807228955, 0.34192771084336115], [34.11516248153619, 0.8569940915805], [34.11271535580524, 0.9022659176029978], [34.20270491803279, 0.9536885245901648], [34.293125, 0.9265624999999984], [35.05, 0.29583333333328304], [35.05, 0.2552380952381044], [34.867951807228955, 0.34192771084336115]]]}}, {"type": "Feature", "properties": {"District": "Namutumba", "Region": "Eastern"}, "geometry": {"type": "Polygon", "coordinates": [[[33.78943661971831, 0.8478873239436671], [33.796875, 0.7437500000000005], [33.650925925925925, 0.6853703703703705], [33.60893442622951, 0.6928688524590163], [33.47762773722628, 0.7785036496350368], [33.4588202247191, 0.8607865168539325], [33.64, 0.9843181818181822], [33.77470178926441, 0.9047216699801182], [33.78943661971831, 0.8478873239436671]]]}}, {"type": "Feature", "properties": {"District": "Ngora", "Region": "Eastern"}, "geometry": {"type": "Polygon", "coordinates": [[[33.855000000000004, 1.694200000000003], [33.855000000000004, 1.2943750000000012], [33.849999999999994, 1.2912499999999996], [33.64474801061008, 1.329734748010611], [33.67746679316888, 1.5805787476280828], [33.855000000000004, 1.694200000000003]]]}}, {"type": "Feature", "properties": {"District": "Pallisa", "Region": "Eastern"}, "geometry": {"type": "Polygon", "coordinates": [[[33.64474801061008, 1.329734748010611], [33.849999999999994, 1.2912499999999996], [33.85, 1.160000000000001], [33.64, 1.0339999999999978], [33.530744680851065, 1.2743617021276596], [33.64474801061008, 1.329734748010611]]]}}, {"type": "Feature", "properties": {"District": "Serere", "Region": "Eastern"}, "geometry": {"type": "Polygon", "coordinates": [[[33.383554216867466, 1.6740963855421689], [33.67746679316888, 1.5805787476280828], [33.64474801061008, 1.329734748010611], [33.530744680851065, 1.2743617021276596], [33.36704081632653, 1.292551020408162], [33.238571428571426, 1.4467142857142865], [33.378846153846155, 1.6711538461538469], [33.383554216867466, 1.6740963855421689]]]}}, {"type": "Feature", "properties": {"District": "Sironko", "Region": "Eastern"}, "geometry": {"type": "Polygon", "coordinates": [[[34.24155172413793, 1.4425862068965556], [34.40199029126214, 1.2538349514563112], [34.28715189873417, 1.1213291139240509], [34.110988538681944, 1.203538681948425], [34.10673553719008, 1.2178925619834704], [34.24155172413793, 1.4425862068965556]]]}}, {"type": "Feature", "properties": {"District": "Soroti", "Region": "Eastern"}, "geometry": {"type": "Polygon", "coordinates": [[[33.50127218934911, 1.8833727810650893], [33.70722222222222, 1.8627777777777772], [33.855, 1.714999999999998], [33.86120689655172, 1.7018965517241382], [33.855000000000004, 1.694200000000003], [33.67746679316888, 1.5805787476280828], [33.383554216867466, 1.6740963855421689], [33.50127218934911, 1.8833727810650893]]]}}, {"type": "Feature", "properties": {"District": "Tororo", "Region": "Eastern"}, "geometry": {"type": "Polygon", "coordinates": [[[33.96301339285714, 0.6173437500000005], [33.95858490566038, 0.6359433962264144], [34.11516248153619, 0.8569940915805], [34.867951807228955, 0.34192771084336115], [33.96301339285714, 0.6173437500000005]]]}}, {"type": "Feature", "properties": {"District": "Abim", "Region": "Northern"}, "geometry": {"type": "Polygon", "coordinates": [[[33.39078947368421, 2.6652631578947372], [33.783613861386144, 3.02237623762376], [33.97909090909091, 2.687272727272728], [33.87, 2.3600000000000003], [33.64181818181818, 2.36], [33.625322580645154, 2.3720967741935537], [33.39078947368421, 2.6652631578947372]]]}}, {"type": "Feature", "properties": {"District": "Adjumani", "Region": "Northern"}, "geometry": {"type": "Polygon", "coordinates": [[[32.17384726224784, 3.1933919308357352], [31.658524185587364, 3.0434797630799606], [31.70684368737475, 3.5025150300601204], [32.23892843969015, 3.6404629288085584], [32.299871833763085, 3.296311997573184], [32.17384726224784, 3.1933919308357352]]]}}, {"type": "Feature", "properties": {"District": "Agago", "Region": "Northern"}, "geometry": {"type": "Polygon", "coordinates": [[[33.39078947368421, 2.6652631578947372], [33.287209302325586, 2.696337209302326], [33.25578947368421, 3.246184210526315], [33.4840625, 3.5885937499999976], [33.76229508196722, 3.2639890710382486], [33.783613861386144, 3.02237623762376], [33.39078947368421, 2.6652631578947372]]]}}, {"type": "Feature", "properties": {"District": "Alebtong", "Region": "Northern"}, "geometry": {"type": "Polygon", "coordinates": [[[33.64181818181818, 2.36], [33.43808076602831, 2.0676810990840955], [33.2474763705104, 2.078572778827978], [33.11, 2.14939393939394], [33.11, 2.3114705882352906], [33.625322580645154, 2.3720967741935537], [33.64181818181818, 2.36]]]}}, {"type": "Feature", "properties": {"District": "Amolatar", "Region": "Northern"}, "geometry": {"type": "Polygon", "coordinates": [[[32.578341968911914, 1.5736787564766852], [32.840206611570245, 1.9402892561983478], [32.935625, 1.835], [33.079240506329114, 1.4520253164556958], [32.79765765765766, 1.2760360360360357], [32.578341968911914, 1.5736787564766852]]]}}, {"type": "Feature", "properties": {"District": "Amudat", "Region": "Northern"}, "geometry": {"type": "Polygon", "coordinates": [[[35.05, 2.121249999999998], [35.05, 1.486511627906978], [34.78051724137931, 1.580517241379311], [34.70696078431372, 1.6924509803921566], [35.05, 2.121249999999998]]]}}, {"type": "Feature", "properties": {"District": "Amuru", "Region": "Northern"}, "geometry": {"type": "Polygon", "coordinates": [[[32.10566757493188, 2.7434059945504092], [31.71774074074074, 2.6590740740740735], [31.51717777777778, 2.909777777777777], [31.531613496932515, 2.965552147239265], [31.658524185587364, 3.0434797630799606], [32.17384726224784, 3.1933919308357352], [32.10566757493188, 2.7434059945504092]]]}}, {"type": "Feature", "properties": {"District": "Apac", "Region": "Northern"}, "geometry": {"type": "Polygon", "coordinates": [[[32.29397435897436, 2.05301282051282], [32.55008982035928, 2.2370958083832346], [32.6728125, 2.172812500000001], [32.839137931034486, 1.9448850574712573], [32.32680030257186, 1.876573373676254], [32.29397435897436, 2.05301282051282]]]}}, {"type": "Feature", "properties": {"District": "Arua", "Region": "Northern"}, "geometry": {"type": "Polygon", "coordinates": [[[31.033947368421053, 2.7649999999999997], [30.750596393897368, 2.667115117891817], [30.183271954674225, 2.6748866855524094], [30.79675965665236, 3.141137339055793], [31.007, 3.0210000000000004], [31.033947368421053, 2.7649999999999997]]]}}, {"type": "Feature", "properties": {"District": "Dokolo", "Region": "Northern"}, "geometry": {"type": "Polygon", "coordinates": [[[33.2474763705104, 2.078572778827978], [33.214999999999996, 1.835], [32.935625, 1.835], [32.840206611570245, 1.9402892561983478], [32.839571428571425, 1.944523809523809], [33.11, 2.14939393939394], [33.2474763705104, 2.078572778827978]]]}}, {"type": "Feature", "properties": {"District": "Gulu", "Region": "Northern"}, "geometry": {"type": "Polygon", "coordinates": [[[32.42299632352942, 3.2211580882352915], [32.677133182844244, 2.9279232505643344], [32.67956521739131, 2.9113043478260874], [32.1730612244898, 2.638571428571428], [32.10566757493188, 2.7434059945504092], [32.17384726224784, 3.1933919308357352], [32.299871833763085, 3.296311997573184], [32.42299632352942, 3.2211580882352915]]]}}, {"type": "Feature", "properties": {"District": "Kaabong", "Region": "Northern"}, "geometry": {"type": "Polygon", "coordinates": [[[34.16739488117002, 3.2489853747714807], [33.76229508196722, 3.2639890710382486], [33.4840625, 3.5885937499999976], [33.45477174227102, 3.7576813059809355], [33.46532142857143, 4.25], [34.51774999999999, 4.25], [34.16739488117002, 3.2489853747714807]]]}}, {"type": "Feature", "properties": {"District": "Karenga", "Region": "Northern"}, "geometry": {"type": "Polygon", "coordinates": [[[34.630069889341875, 3.032414094350612], [34.16739488117002, 3.2489853747714807], [34.51774999999999, 4.25], [35.05, 4.25], [35.05, 3.1693478260869545], [34.630069889341875, 3.032414094350612]]]}}, {"type": "Feature", "properties": {"District": "Kitgum", "Region": "Northern"}, "geometry": {"type": "Polygon", "coordinates": [[[32.42299632352942, 3.2211580882352915], [33.45477174227102, 3.7576813059809355], [33.4840625, 3.5885937499999976], [33.25578947368421, 3.246184210526315], [32.677133182844244, 2.9279232505643344], [32.42299632352942, 3.2211580882352915]]]}}, {"type": "Feature", "properties": {"District": "Koboko", "Region": "Northern"}, "geometry": {"type": "Polygon", "coordinates": [[[31.151666666666667, 3.268333333333334], [31.080652173913045, 3.2419565217391306], [30.88582644628099, 3.254944903581267], [30.408199999999997, 4.25], [30.90625, 4.25], [31.151666666666667, 3.268333333333334]]]}}, {"type": "Feature", "properties": {"District": "Kole", "Region": "Northern"}, "geometry": {"type": "Polygon", "coordinates": [[[33.01865671641791, 2.584440298507464], [33.020964912280704, 2.520964912280699], [32.6728125, 2.172812500000001], [32.55008982035928, 2.2370958083832346], [32.50286885245902, 2.449590163934424], [32.71847826086957, 2.7945652173913045], [33.01865671641791, 2.584440298507464]]]}}, {"type": "Feature", "properties": {"District": "Kotido", "Region": "Northern"}, "geometry": {"type": "Polygon", "coordinates": [[[33.76229508196722, 3.2639890710382486], [34.16739488117002, 3.2489853747714807], [34.630069889341875, 3.032414094350612], [34.428650306748466, 2.7996625766871146], [33.97909090909091, 2.687272727272728], [33.783613861386144, 3.02237623762376], [33.76229508196722, 3.2639890710382486]]]}}, {"type": "Feature", "properties": {"District": "Kwania", "Region": "Northern"}, "geometry": {"type": "Polygon", "coordinates": [[[32.578341968911914, 1.5736787564766852], [32.289058295964125, 1.633946188340805], [32.32680030257186, 1.876573373676254], [32.839137931034486, 1.9448850574712573], [32.839571428571425, 1.944523809523809], [32.840206611570245, 1.9402892561983478], [32.578341968911914, 1.5736787564766852]]]}}, {"type": "Feature", "properties": {"District": "Lamwo", "Region": "Northern"}, "geometry": {"type": "Polygon", "coordinates": [[[33.45477174227102, 3.7576813059809355], [32.42299632352942, 3.2211580882352915], [32.299871833763085, 3.296311997573184], [32.23892843969015, 3.6404629288085584], [32.2981067961165, 4.25], [33.46532142857143, 4.25], [33.45477174227102, 3.7576813059809355]]]}}, {"type": "Feature", "properties": {"District": "Lira", "Region": "Northern"}, "geometry": {"type": "Polygon", "coordinates": [[[32.839571428571425, 1.944523809523809], [32.839137931034486, 1.9448850574712573], [32.6728125, 2.172812500000001], [33.020964912280704, 2.520964912280699], [33.11, 2.3114705882352906], [33.11, 2.14939393939394], [32.839571428571425, 1.944523809523809]]]}}, {"type": "Feature", "properties": {"District": "Madi-Okollo", "Region": "Northern"}, "geometry": {"type": "Polygon", "coordinates": [[[31.080652173913045, 3.2419565217391306], [31.151666666666667, 3.268333333333334], [31.375666666666667, 3.188333333333334], [31.531613496932515, 2.965552147239265], [31.51717777777778, 2.909777777777777], [31.30725, 2.7649999999999997], [31.033947368421053, 2.7649999999999997], [31.007, 3.0210000000000004], [31.080652173913045, 3.2419565217391306]]]}}, {"type": "Feature", "properties": {"District": "Maracha", "Region": "Northern"}, "geometry": {"type": "Polygon", "coordinates": [[[30.88582644628099, 3.254944903581267], [30.79675965665236, 3.141137339055793], [30.183271954674225, 2.6748866855524094], [29.55, 2.5585714285714296], [29.55, 4.25], [30.408199999999997, 4.25], [30.88582644628099, 3.254944903581267]]]}}, {"type": "Feature", "properties": {"District": "Moroto", "Region": "Northern"}, "geometry": {"type": "Polygon", "coordinates": [[[34.46125, 2.3649999999999998], [34.428650306748466, 2.7996625766871146], [34.630069889341875, 3.032414094350612], [35.05, 3.1693478260869545], [35.05, 2.365], [34.46125, 2.3649999999999998]]]}}, {"type": "Feature", "properties": {"District": "Moyo", "Region": "Northern"}, "geometry": {"type": "Polygon", "coordinates": [[[32.23892843969015, 3.6404629288085584], [31.70684368737475, 3.5025150300601204], [31.462007299270073, 3.620036496350363], [31.220744680851062, 4.25], [32.2981067961165, 4.25], [32.23892843969015, 3.6404629288085584]]]}}, {"type": "Feature", "properties": {"District": "Nabilatuk", "Region": "Northern"}, "geometry": {"type": "Polygon", "coordinates": [[[34.28690476190476, 2.132539682539683], [34.46125, 2.3649999999999998], [35.05, 2.365], [35.05, 2.1666666666666683], [34.375, 1.9416666666666655], [34.28690476190476, 2.132539682539683]]]}}, {"type": "Feature", "properties": {"District": "Nakapiripirit", "Region": "Northern"}, "geometry": {"type": "Polygon", "coordinates": [[[34.70696078431372, 1.6924509803921566], [34.375, 1.8821428571428587], [34.375, 1.9416666666666655], [35.05, 2.1666666666666683], [35.05, 2.121249999999998], [34.70696078431372, 1.6924509803921566]]]}}, {"type": "Feature", "properties": {"District": "Napak", "Region": "Northern"}, "geometry": {"type": "Polygon", "coordinates": [[[33.97909090909091, 2.687272727272728], [34.428650306748466, 2.7996625766871146], [34.46125, 2.3649999999999998], [34.28690476190476, 2.132539682539683], [34.02987804878049, 2.2396341463414626], [33.87782608695652, 2.3502173913043487], [33.87, 2.3600000000000003], [33.97909090909091, 2.687272727272728]]]}}, {"type": "Feature", "properties": {"District": "Nebbi", "Region": "Northern"}, "geometry": {"type": "Polygon", "coordinates": [[[31.30725, 2.7649999999999997], [31.29292384769539, 2.191953907815631], [31.20842105263158, 2.158421052631578], [30.750596393897368, 2.667115117891817], [31.033947368421053, 2.7649999999999997], [31.30725, 2.7649999999999997]]]}}, {"type": "Feature", "properties": {"District": "Nwoya", "Region": "Northern"}, "geometry": {"type": "Polygon", "coordinates": [[[32.1730612244898, 2.638571428571428], [32.19375, 2.4937500000000012], [31.93333333333333, 2.2333333333333325], [31.83219008264463, 2.2188842975206606], [31.71774074074074, 2.6590740740740735], [32.10566757493188, 2.7434059945504092], [32.1730612244898, 2.638571428571428]]]}}, {"type": "Feature", "properties": {"District": "Obongi", "Region": "Northern"}, "geometry": {"type": "Polygon", "coordinates": [[[31.531613496932515, 2.965552147239265], [31.375666666666667, 3.188333333333334], [31.462007299270073, 3.620036496350363], [31.70684368737475, 3.5025150300601204], [31.658524185587364, 3.0434797630799606], [31.531613496932515, 2.965552147239265]]]}}, {"type": "Feature", "properties": {"District": "Omoro", "Region": "Northern"}, "geometry": {"type": "Polygon", "coordinates": [[[32.71847826086957, 2.7945652173913045], [32.50286885245902, 2.449590163934424], [32.19375, 2.4937500000000012], [32.1730612244898, 2.638571428571428], [32.67956521739131, 2.9113043478260874], [32.71847826086957, 2.7945652173913045]]]}}, {"type": "Feature", "properties": {"District": "Otuke", "Region": "Northern"}, "geometry": {"type": "Polygon", "coordinates": [[[33.11, 2.3114705882352906], [33.020964912280704, 2.520964912280699], [33.01865671641791, 2.584440298507464], [33.287209302325586, 2.696337209302326], [33.39078947368421, 2.6652631578947372], [33.625322580645154, 2.3720967741935537], [33.11, 2.3114705882352906]]]}}, {"type": "Feature", "properties": {"District": "Oyam", "Region": "Northern"}, "geometry": {"type": "Polygon", "coordinates": [[[32.55008982035928, 2.2370958083832346], [32.29397435897436, 2.05301282051282], [31.93333333333333, 2.2333333333333325], [32.19375, 2.4937500000000012], [32.50286885245902, 2.449590163934424], [32.55008982035928, 2.2370958083832346]]]}}, {"type": "Feature", "properties": {"District": "Pader", "Region": "Northern"}, "geometry": {"type": "Polygon", "coordinates": [[[32.677133182844244, 2.9279232505643344], [33.25578947368421, 3.246184210526315], [33.287209302325586, 2.696337209302326], [33.01865671641791, 2.584440298507464], [32.71847826086957, 2.7945652173913045], [32.67956521739131, 2.9113043478260874], [32.677133182844244, 2.9279232505643344]]]}}, {"type": "Feature", "properties": {"District": "Pakwach", "Region": "Northern"}, "geometry": {"type": "Polygon", "coordinates": [[[31.71774074074074, 2.6590740740740735], [31.83219008264463, 2.2188842975206606], [31.726256454388984, 2.1073752151462997], [31.68732640251079, 2.0965339348764225], [31.29292384769539, 2.191953907815631], [31.30725, 2.7649999999999997], [31.51717777777778, 2.909777777777777], [31.71774074074074, 2.6590740740740735]]]}}, {"type": "Feature", "properties": {"District": "Terego", "Region": "Northern"}, "geometry": {"type": "Polygon", "coordinates": [[[30.79675965665236, 3.141137339055793], [30.88582644628099, 3.254944903581267], [31.080652173913045, 3.2419565217391306], [31.007, 3.0210000000000004], [30.79675965665236, 3.141137339055793]]]}}, {"type": "Feature", "properties": {"District": "Yumbe", "Region": "Northern"}, "geometry": {"type": "Polygon", "coordinates": [[[31.462007299270073, 3.620036496350363], [31.375666666666667, 3.188333333333334], [31.151666666666667, 3.268333333333334], [30.90625, 4.25], [31.220744680851062, 4.25], [31.462007299270073, 3.620036496350363]]]}}, {"type": "Feature", "properties": {"District": "Zombo", "Region": "Northern"}, "geometry": {"type": "Polygon", "coordinates": [[[31.20842105263158, 2.158421052631578], [30.755555555555556, 1.7055555555555553], [30.659239130434784, 1.6880434782608689], [29.55, 2.0429999999999984], [29.55, 2.5585714285714296], [30.183271954674225, 2.6748866855524094], [30.750596393897368, 2.667115117891817], [31.20842105263158, 2.158421052631578]]]}}, {"type": "Feature", "properties": {"District": "Buhweju", "Region": "Western"}, "geometry": {"type": "Polygon", "coordinates": [[[30.521428571428572, -0.38571428571428534], [30.289383561643834, -0.4321232876712332], [30.190104166666668, -0.38895833333333346], [30.22458515283843, -0.04414847161571955], [30.288653846153846, -0.01478365384615321], [30.305, -0.02499999999999991], [30.521428571428572, -0.38571428571428534]]]}}, {"type": "Feature", "properties": {"District": "Buliisa", "Region": "Western"}, "geometry": {"type": "Polygon", "coordinates": [[[31.68732640251079, 2.0965339348764225], [31.47756756756757, 1.64], [30.926000000000002, 1.64], [30.755555555555556, 1.7055555555555553], [31.20842105263158, 2.158421052631578], [31.29292384769539, 2.191953907815631], [31.68732640251079, 2.0965339348764225]]]}}, {"type": "Feature", "properties": {"District": "Bundibugyo", "Region": "Western"}, "geometry": {"type": "Polygon", "coordinates": [[[30.223009708737866, 0.9418446601941743], [30.14227272727273, 0.5704545454545461], [30.063964143426297, 0.43994023904382473], [29.55, 0.4102884615384639], [29.55, 1.8071428571428543], [30.223009708737866, 0.9418446601941743]]]}}, {"type": "Feature", "properties": {"District": "Bunyangabu", "Region": "Western"}, "geometry": {"type": "Polygon", "coordinates": [[[30.449730538922157, 0.6319461077844305], [30.495, 0.4250000000000001], [30.31060471976401, 0.2932890855457219], [30.063964143426297, 0.43994023904382473], [30.14227272727273, 0.5704545454545461], [30.449730538922157, 0.6319461077844305]]]}}, {"type": "Feature", "properties": {"District": "Bushenyi", "Region": "Western"}, "geometry": {"type": "Polygon", "coordinates": [[[30.253493150684932, -0.7013013698630134], [30.226666666666667, -0.7066666666666664], [29.989285714285714, -0.4692857142857138], [30.190104166666668, -0.38895833333333346], [30.289383561643834, -0.4321232876712332], [30.253493150684932, -0.7013013698630134]]]}}, {"type": "Feature", "properties": {"District": "Hoima", "Region": "Western"}, "geometry": {"type": "Polygon", "coordinates": [[[30.926000000000002, 1.64], [31.47756756756757, 1.64], [31.644290357529794, 1.3932502708559045], [31.354785714285715, 1.1739285714285714], [30.926000000000002, 1.64]]]}}, {"type": "Feature", "properties": {"District": "Ibanda", "Region": "Western"}, "geometry": {"type": "Polygon", "coordinates": [[[30.70357142857143, -0.024999999999999994], [30.70441176470588, -0.02794117647059069], [30.636627906976745, -0.366860465116279], [30.53076923076923, -0.3903846153846149], [30.521428571428572, -0.38571428571428534], [30.305, -0.02499999999999991], [30.70357142857143, -0.024999999999999994]]]}}, {"type": "Feature", "properties": {"District": "Isingiro", "Region": "Western"}, "geometry": {"type": "Polygon", "coordinates": [[[30.55261038961039, -1.1761168831168844], [30.5381718061674, -0.9210352422907496], [30.667307692307695, -0.7596153846153844], [30.938709677419354, -0.5967741935483861], [31.08362068965517, -0.7094827586206889], [31.28125, -1.5], [30.751923076923074, -1.5], [30.55261038961039, -1.1761168831168844]]]}}, {"type": "Feature", "properties": {"District": "Kabale", "Region": "Western"}, "geometry": {"type": "Polygon", "coordinates": [[[29.83364406779661, -1.3014406779661023], [29.99224935732648, -1.0159511568123392], [30.05387425938117, -1.0092527978933508], [30.064999999999998, -1.0179729729729727], [30.064999999999998, -1.5], [29.853499999999997, -1.5], [29.83364406779661, -1.3014406779661023]]]}}, {"type": "Feature", "properties": {"District": "Kabarole", "Region": "Western"}, "geometry": {"type": "Polygon", "coordinates": [[[30.223009708737866, 0.9418446601941743], [30.46531556802244, 0.8085764375876577], [30.449730538922157, 0.6319461077844305], [30.14227272727273, 0.5704545454545461], [30.223009708737866, 0.9418446601941743]]]}}, {"type": "Feature", "properties": {"District": "Kagadi", "Region": "Western"}, "geometry": {"type": "Polygon", "coordinates": [[[30.840272353545735, 0.6974049331963004], [30.606769480519482, 0.8480519480519481], [30.76425, 1.2680000000000011], [31.0155076142132, 1.0074365482233505], [30.840272353545735, 0.6974049331963004]]]}}, {"type": "Feature", "properties": {"District": "Kakumiro", "Region": "Western"}, "geometry": {"type": "Polygon", "coordinates": [[[31.221, 0.7060000000000001], [31.020454545454545, 1.0068181818181823], [31.342857142857145, 1.1142857142857132], [31.47858024691358, 0.8428395061728402], [31.221, 0.7060000000000001]]]}}, {"type": "Feature", "properties": {"District": "Kamwenge", "Region": "Western"}, "geometry": {"type": "Polygon", "coordinates": [[[30.31060471976401, 0.2932890855457219], [30.495, 0.4250000000000001], [30.77889705882353, 0.37768382352941166], [30.850224215246637, 0.25031390134529174], [30.77857142857143, 0.15000000000000002], [30.316702127659575, 0.15000000000000002], [30.31060471976401, 0.2932890855457219]]]}}, {"type": "Feature", "properties": {"District": "Kanungu", "Region": "Western"}, "geometry": {"type": "Polygon", "coordinates": [[[29.55457055214724, -1.0438343558282204], [29.55, -1.042631578947368], [29.55, -0.42909090909091324], [29.976083123425695, -1.0101133501259447], [29.55457055214724, -1.0438343558282204]]]}}, {"type": "Feature", "properties": {"District": "Kasese", "Region": "Western"}, "geometry": {"type": "Polygon", "coordinates": [[[30.063964143426297, 0.43994023904382473], [30.31060471976401, 0.2932890855457219], [30.316702127659575, 0.15000000000000002], [30.288653846153846, -0.01478365384615321], [30.22458515283843, -0.04414847161571955], [29.55, -0.07347826086956884], [29.55, 0.4102884615384639], [30.063964143426297, 0.43994023904382473]]]}}, {"type": "Feature", "properties": {"District": "Kazo", "Region": "Western"}, "geometry": {"type": "Polygon", "coordinates": [[[31.012931034482758, -0.23362068965517088], [30.70441176470588, -0.02794117647059069], [30.70357142857143, -0.024999999999999994], [30.77857142857143, 0.15000000000000002], [30.850224215246637, 0.25031390134529174], [31.125, 0.17254716981132007], [31.125, -0.15357142857142755], [31.012931034482758, -0.23362068965517088]]]}}, {"type": "Feature", "properties": {"District": "Kibaale", "Region": "Western"}, "geometry": {"type": "Polygon", "coordinates": [[[31.175625, 0.64], [30.864302325581395, 0.64], [30.840272353545735, 0.6974049331963004], [31.0155076142132, 1.0074365482233505], [31.020454545454545, 1.0068181818181823], [31.221, 0.7060000000000001], [31.175625, 0.64]]]}}, {"type": "Feature", "properties": {"District": "Kikuube", "Region": "Western"}, "geometry": {"type": "Polygon", "coordinates": [[[31.020454545454545, 1.0068181818181823], [31.0155076142132, 1.0074365482233505], [30.76425, 1.2680000000000011], [30.659239130434784, 1.6880434782608689], [30.755555555555556, 1.7055555555555553], [30.926000000000002, 1.64], [31.354785714285715, 1.1739285714285714], [31.342857142857145, 1.1142857142857132], [31.020454545454545, 1.0068181818181823]]]}}, {"type": "Feature", "properties": {"District": "Kiruhura", "Region": "Western"}, "geometry": {"type": "Polygon", "coordinates": [[[30.883823529411764, -0.45955882352941224], [30.636627906976745, -0.366860465116279], [30.70441176470588, -0.02794117647059069], [31.012931034482758, -0.23362068965517088], [30.883823529411764, -0.45955882352941224]]]}}, {"type": "Feature", "properties": {"District": "Kiryandongo", "Region": "Western"}, "geometry": {"type": "Polygon", "coordinates": [[[31.726256454388984, 2.1073752151462997], [31.83219008264463, 2.2188842975206606], [31.93333333333333, 2.2333333333333325], [32.29397435897436, 2.05301282051282], [32.32680030257186, 1.876573373676254], [32.289058295964125, 1.633946188340805], [32.15714285714286, 1.5499999999999998], [32.048947368421054, 1.55], [31.726256454388984, 2.1073752151462997]]]}}, {"type": "Feature", "properties": {"District": "Kisoro", "Region": "Western"}, "geometry": {"type": "Polygon", "coordinates": [[[29.55457055214724, -1.0438343558282204], [29.83364406779661, -1.3014406779661023], [29.853499999999997, -1.5], [29.55, -1.5], [29.55, -1.042631578947368], [29.55457055214724, -1.0438343558282204]]]}}, {"type": "Feature", "properties": {"District": "Kitagwenda", "Region": "Western"}, "geometry": {"type": "Polygon", "coordinates": [[[30.288653846153846, -0.01478365384615321], [30.316702127659575, 0.15000000000000002], [30.77857142857143, 0.15000000000000002], [30.70357142857143, -0.024999999999999994], [30.305, -0.02499999999999991], [30.288653846153846, -0.01478365384615321]]]}}, {"type": "Feature", "properties": {"District": "Kyegegwa", "Region": "Western"}, "geometry": {"type": "Polygon", "coordinates": [[[30.850224215246637, 0.25031390134529174], [30.77889705882353, 0.37768382352941166], [30.864302325581395, 0.64], [31.175625, 0.64], [31.292139278557116, 0.2671543086172345], [31.125, 0.17254716981132007], [30.850224215246637, 0.25031390134529174]]]}}, {"type": "Feature", "properties": {"District": "Kyenjojo", "Region": "Western"}, "geometry": {"type": "Polygon", "coordinates": [[[30.46531556802244, 0.8085764375876577], [30.606769480519482, 0.8480519480519481], [30.840272353545735, 0.6974049331963004], [30.864302325581395, 0.64], [30.77889705882353, 0.37768382352941166], [30.495, 0.4250000000000001], [30.449730538922157, 0.6319461077844305], [30.46531556802244, 0.8085764375876577]]]}}, {"type": "Feature", "properties": {"District": "Masindi", "Region": "Western"}, "geometry": {"type": "Polygon", "coordinates": [[[31.80812949640288, 1.3593525179856119], [31.644290357529794, 1.3932502708559045], [31.47756756756757, 1.64], [31.68732640251079, 2.0965339348764225], [31.726256454388984, 2.1073752151462997], [32.048947368421054, 1.55], [31.80812949640288, 1.3593525179856119]]]}}, {"type": "Feature", "properties": {"District": "Mbarara", "Region": "Western"}, "geometry": {"type": "Polygon", "coordinates": [[[30.667307692307695, -0.7596153846153844], [30.51875, -0.4625000000000035], [30.53076923076923, -0.3903846153846149], [30.636627906976745, -0.366860465116279], [30.883823529411764, -0.45955882352941224], [30.938709677419354, -0.5967741935483861], [30.667307692307695, -0.7596153846153844]]]}}, {"type": "Feature", "properties": {"District": "Mitooma", "Region": "Western"}, "geometry": {"type": "Polygon", "coordinates": [[[30.095892116182572, -0.8505186721991704], [29.715000000000003, -0.4349999999999996], [29.989285714285714, -0.4692857142857138], [30.226666666666667, -0.7066666666666664], [30.095892116182572, -0.8505186721991704]]]}}, {"type": "Feature", "properties": {"District": "Ntoroko", "Region": "Western"}, "geometry": {"type": "Polygon", "coordinates": [[[29.55, 1.8071428571428543], [29.55, 2.0429999999999984], [30.659239130434784, 1.6880434782608689], [30.76425, 1.2680000000000011], [30.606769480519482, 0.8480519480519481], [30.46531556802244, 0.8085764375876577], [30.223009708737866, 0.9418446601941743], [29.55, 1.8071428571428543]]]}}, {"type": "Feature", "properties": {"District": "Ntungamo", "Region": "Western"}, "geometry": {"type": "Polygon", "coordinates": [[[30.383581081081083, -0.7328378378378383], [30.5381718061674, -0.9210352422907496], [30.55261038961039, -1.1761168831168844], [30.064999999999998, -1.0179729729729727], [30.05387425938117, -1.0092527978933508], [30.095892116182572, -0.8505186721991704], [30.226666666666667, -0.7066666666666664], [30.253493150684932, -0.7013013698630134], [30.383581081081083, -0.7328378378378383]]]}}, {"type": "Feature", "properties": {"District": "Rubanda", "Region": "Western"}, "geometry": {"type": "Polygon", "coordinates": [[[29.83364406779661, -1.3014406779661023], [29.55457055214724, -1.0438343558282204], [29.976083123425695, -1.0101133501259447], [29.99224935732648, -1.0159511568123392], [29.83364406779661, -1.3014406779661023]]]}}, {"type": "Feature", "properties": {"District": "Rubirizi", "Region": "Western"}, "geometry": {"type": "Polygon", "coordinates": [[[30.22458515283843, -0.04414847161571955], [30.190104166666668, -0.38895833333333346], [29.989285714285714, -0.4692857142857138], [29.715000000000003, -0.4349999999999996], [29.55, -0.3799999999999984], [29.55, -0.07347826086956884], [30.22458515283843, -0.04414847161571955]]]}}, {"type": "Feature", "properties": {"District": "Rukiga", "Region": "Western"}, "geometry": {"type": "Polygon", "coordinates": [[[30.064999999999998, -1.0179729729729727], [30.55261038961039, -1.1761168831168844], [30.751923076923074, -1.5], [30.064999999999998, -1.5], [30.064999999999998, -1.0179729729729727]]]}}, {"type": "Feature", "properties": {"District": "Rukungiri", "Region": "Western"}, "geometry": {"type": "Polygon", "coordinates": [[[29.715000000000003, -0.4349999999999996], [30.095892116182572, -0.8505186721991704], [30.05387425938117, -1.0092527978933508], [29.99224935732648, -1.0159511568123392], [29.976083123425695, -1.0101133501259447], [29.55, -0.42909090909091324], [29.55, -0.3799999999999984], [29.715000000000003, -0.4349999999999996]]]}}, {"type": "Feature", "properties": {"District": "Rwampara", "Region": "Western"}, "geometry": {"type": "Polygon", "coordinates": [[[30.667307692307695, -0.7596153846153844], [30.5381718061674, -0.9210352422907496], [30.383581081081083, -0.7328378378378383], [30.51875, -0.4625000000000035], [30.667307692307695, -0.7596153846153844]]]}}, {"type": "Feature", "properties": {"District": "Sheema", "Region": "Western"}, "geometry": {"type": "Polygon", "coordinates": [[[30.521428571428572, -0.38571428571428534], [30.53076923076923, -0.3903846153846149], [30.51875, -0.4625000000000035], [30.383581081081083, -0.7328378378378383], [30.253493150684932, -0.7013013698630134], [30.289383561643834, -0.4321232876712332], [30.521428571428572, -0.38571428571428534]]]}}, {"type": "Feature", "properties": {"District": "Arua City", "Region": "Northern"}, "geometry": {"type": "Polygon", "coordinates": [[[31.033947368421053, 2.7649999999999997], [30.750596393897368, 2.667115117891817], [30.183271954674225, 2.6748866855524094], [30.79675965665236, 3.141137339055793], [31.007, 3.0210000000000004], [31.033947368421053, 2.7649999999999997]]]}}, {"type": "Feature", "properties": {"District": "Entebbe City", "Region": "Central"}, "geometry": {"type": "Polygon", "coordinates": [[[32.75520774647887, 0.04443309859155703], [32.84717678100264, -0.05387862796833301], [32.86735704697987, -0.09498657718120534], [32.786872659176026, -0.3581086142322116], [32.19520408163265, -0.06948979591836688], [32.229727272727274, 0.016818181818177513], [32.47061293695847, 0.22936435613982734], [32.75520774647887, 0.04443309859155703]]]}}, {"type": "Feature", "properties": {"District": "Fort Portal City", "Region": "Western"}, "geometry": {"type": "Polygon", "coordinates": [[[30.223009708737866, 0.9418446601941743], [30.46531556802244, 0.8085764375876577], [30.449730538922157, 0.6319461077844305], [30.14227272727273, 0.5704545454545461], [30.223009708737866, 0.9418446601941743]]]}}, {"type": "Feature", "properties": {"District": "Gulu City", "Region": "Northern"}, "geometry": {"type": "Polygon", "coordinates": [[[32.42299632352942, 3.2211580882352915], [32.677133182844244, 2.9279232505643344], [32.67956521739131, 2.9113043478260874], [32.1730612244898, 2.638571428571428], [32.10566757493188, 2.7434059945504092], [32.17384726224784, 3.1933919308357352], [32.299871833763085, 3.296311997573184], [32.42299632352942, 3.2211580882352915]]]}}, {"type": "Feature", "properties": {"District": "Hoima City", "Region": "Western"}, "geometry": {"type": "Polygon", "coordinates": [[[30.926000000000002, 1.64], [31.47756756756757, 1.64], [31.644290357529794, 1.3932502708559045], [31.354785714285715, 1.1739285714285714], [30.926000000000002, 1.64]]]}}, {"type": "Feature", "properties": {"District": "Jinja City", "Region": "Eastern"}, "geometry": {"type": "Polygon", "coordinates": [[[33.107264150943394, 0.6668867924528291], [33.32418918918919, 0.5739189189189191], [33.331598639455784, 0.5556802721088447], [33.30336894215737, 0.14634966128191756], [33.28925036390102, 0.1438209606986901], [32.99177419354839, 0.5262903225806453], [33.107264150943394, 0.6668867924528291]]]}}, {"type": "Feature", "properties": {"District": "Lira City", "Region": "Northern"}, "geometry": {"type": "Polygon", "coordinates": [[[32.839571428571425, 1.944523809523809], [32.839137931034486, 1.9448850574712573], [32.6728125, 2.172812500000001], [33.020964912280704, 2.520964912280699], [33.11, 2.3114705882352906], [33.11, 2.14939393939394], [32.839571428571425, 1.944523809523809]]]}}, {"type": "Feature", "properties": {"District": "Masaka City", "Region": "Central"}, "geometry": {"type": "Polygon", "coordinates": [[[31.597391304347827, -0.44999999999999996], [31.626428571428573, -0.22738095238095268], [31.99276595744681, -0.2680851063829781], [31.97344827586207, -0.7703448275862075], [31.597391304347827, -0.44999999999999996]]]}}, {"type": "Feature", "properties": {"District": "Mbale City", "Region": "Eastern"}, "geometry": {"type": "Polygon", "coordinates": [[[34.11271535580524, 0.9022659176029978], [34.10472972972973, 0.9109459459459397], [34.04086715867159, 1.0031918819188208], [34.110988538681944, 1.203538681948425], [34.28715189873417, 1.1213291139240509], [34.29139705882353, 1.0746323529411763], [34.20270491803279, 0.9536885245901648], [34.11271535580524, 0.9022659176029978]]]}}, {"type": "Feature", "properties": {"District": "Mbarara City", "Region": "Western"}, "geometry": {"type": "Polygon", "coordinates": [[[30.667307692307695, -0.7596153846153844], [30.51875, -0.4625000000000035], [30.53076923076923, -0.3903846153846149], [30.636627906976745, -0.366860465116279], [30.883823529411764, -0.45955882352941224], [30.938709677419354, -0.5967741935483861], [30.667307692307695, -0.7596153846153844]]]}}]}